{"type":"FeatureCollection","features":[{"type":"Feature","properties":{},"geometry":{"coordinates":[[10.105690745380542,46.84040858828894],[10.124227358614917,46.847830797216545],[10.156777633573256,46.84810006009906],[10.228107557397408,46.86684052467598],[10.239783417251715,46.93109087103454],[10.29587224551534,46.91993119124194],[10.31780134780189,46.925923561821435],[10.350410112644425,46.99025478305364],[10.372357235066886,46.99148770186423],[10.386111398116583,47.00087244002722],[10.402823987167494,46.98984990455787],[10.427922977788029,46.97299347570967],[10.424781075017137,46.96061407022239],[10.489934628143686,46.93463940336301],[10.47150220920824,46.8556814011817],[10.495409037240421,46.84849260684575],[10.525338350899062,46.84616101486904],[10.552777047931954,46.84835338461983],[10.546833337452654,46.8370484002549],[10.605063604085558,46.85888486166979],[10.673981526259894,46.87107758488125],[10.747144990159512,46.8136459551377],[10.722885937852652,46.79527888789352],[10.728261072940882,46.789033559541906],[10.754252765333717,46.786135916969755],[10.788117324192001,46.79410871590994],[10.816899455135967,46.77441600268875],[10.82374809595899,46.77314036991976],[10.836000577396845,46.783360890433585],[10.86634323646038,46.76754249957219],[10.884771371814253,46.76221800027818],[10.896901535917635,46.769718588845535]],"type":"LineString"}},{"type":"Feature","properties":{},"geometry":{"coordinates":[[10.894888451468347,46.770714314222886],[10.902887552578903,46.76808078195154],[10.918068265518855,46.77544587105254],[10.972467308720383,46.7719346721513],[11.022518957456754,46.76578034408496],[11.083215775118447,46.821830474274066],[11.075093979572188,46.85730490939429],[11.101197618192145,46.89009769293247],[11.108006040427341,46.91806505952752],[11.146382088542111,46.928299128982076],[11.168721996641722,46.94519386754041],[11.165170710805342,46.9643082168474],[11.2061146292626,46.96319636837109],[11.261001797820796,46.97395785488209],[11.341532049037596,46.986291951984384],[11.40185955576112,46.963585732667525],[11.44025326111057,46.97324157227703],[11.473310855437973,46.99694292689571],[11.4813378216449,47.01349705551564],[11.513110555424618,47.00523350485415],[11.540162341154542,46.98513333847035]],"type":"LineString"}},{"type":"Feature","properties":{},"geometry":{"coordinates":[[11.5378243018381,46.98324764990204],[11.627099220170635,47.013587391803355],[11.663217049762324,46.990187433042195],[11.712583781107071,46.99300565412611],[11.735654342730328,46.969732751314325],[12.201789421202449,47.09566860550868],[12.246442738827284,47.06865791405724],[12.147250429013212,47.02136121541321],[12.119888068779971,47.004478037939094],[12.151399284643134,46.911706201840786],[12.211140244223088,46.869279961323315],[12.24131580205048,46.892816095805046],[12.280821125971414,46.87084869422577],[12.305853123720226,46.8351606384941],[12.28705643651918,46.78714747301191],[12.362204112869051,46.76983479791241],[12.382323338641157,46.7083944006973],[12.484002088768477,46.68249103488412],[12.566795113179154,46.647973321084976],[12.674780152337462,46.66102510073682],[12.738871429053546,46.632249071914174],[12.7735908560621,46.64760562353345],[12.838048101755618,46.60843102119722],[13.137352261609465,46.5930495838291],[13.241568460479812,46.555532407459],[13.32382939712997,46.55186794822302],[13.39620347765404,46.57555299146355],[13.506617061675627,46.552572001515045]],"type":"LineString"}},{"type":"Feature","properties":{},"geometry":{"coordinates":[[13.517278137091978,46.549591839825325],[13.562322967265459,46.55488759597938],[13.571992966770466,46.540431890384866],[13.620438511222943,46.542264458740874],[13.675334903928757,46.521250864256075],[13.77366251857515,46.518135724242],[13.800900713309886,46.50501033168726],[13.852373077988887,46.517302220379946],[13.900615777636176,46.51847572642103],[14.013244964761952,46.478632398790864],[14.043820178210694,46.49305717927743],[14.129085796905144,46.474244813394705],[14.151984951220072,46.44160735542667],[14.255950879570094,46.44111146214527],[14.415324123843163,46.44162767837986],[14.48146102225465,46.41361024110955],[14.50889966630649,46.423488780037474],[14.564776370716487,46.37950009538213],[14.590775142787976,46.43246631637959],[14.669904893515081,46.44891850046935],[14.68443381674615,46.4710704783011],[14.82188990999282,46.51191916886887],[14.873631119337318,46.611626620708876],[14.919691635974118,46.60494191681707],[14.957094184130966,46.63598632884515],[14.980241724973723,46.59946955277502],[15.054961285348185,46.65341399418017],[15.126561839700372,46.6555132473612],[15.247303975567888,46.63965952599219],[15.330138462127422,46.64868243083461],[15.428025236255365,46.65532020352191],[15.463220571115158,46.61304478453167],[15.510662954991517,46.61742803834366],[15.55025338105986,46.640764132465904],[15.552072629537236,46.66643965428955]],"type":"LineString"}},{"type":"Feature","properties":{},"geometry":{"coordinates":[[15.5513717835629,46.66686144133584],[15.621466032637045,46.68106689730678],[15.67672963030384,46.70662935023347],[15.76949197486303,46.70253125835046],[15.872724263329417,46.722946757065216],[16.038901158389052,46.656162487012466],[16.04488436559555,46.68698739091249],[15.984962651566008,46.75478169493883],[15.99091252097287,46.831652022518966],[16.068686728980538,46.841895590794564],[16.216842279611967,46.939016834264436],[16.2753179750882,46.96047603300474],[16.28721067435214,47.0135484183636],[16.344166225807584,46.99519473327385],[16.511959638405443,47.00031830386368],[16.449050501460135,47.03093252021199],[16.52081994563855,47.061515949037215],[16.466839327194265,47.09003059164431],[16.52973737774215,47.13180294257489],[16.513338673888427,47.150182165192035],[16.45499789605344,47.14306022691176],[16.448994741326402,47.17356952709659],[16.423526055078213,47.19389039883268],[16.444425137032425,47.24771228796541],[16.483312123123937,47.27917526589772],[16.449046053011926,47.35419408206636],[16.456782049336624,47.41092628712204],[16.503219396044813,47.390652159114524],[16.662538922361534,47.44946918349504],[16.659352646926294,47.5082084178014],[16.705862562794948,47.52441463618885],[16.707417470310816,47.54669257969917],[16.637091686565867,47.630674108308284],[16.579835252515778,47.61739618671672],[16.515109771581592,47.64446444411695],[16.42825463530147,47.66260359512512]],"type":"LineString"}},{"type":"Feature","properties":{},"geometry":{"coordinates":[[16.431625477663403,47.66538468633141],[16.477014239236098,47.685539442264314],[16.594959968283092,47.76036753672244],[16.72019851586134,47.73461562858847],[16.750077933604302,47.684817250042926],[16.88097477454471,47.69055359756939],[17.094426705270564,47.71066798115058],[17.017576410067733,47.86172262855243],[17.097232570821774,47.88938204982571]],"type":"LineString"}},{"type":"Feature","properties":{},"geometry":{"coordinates":[[17.09865364252002,47.89515416595077],[17.102937974540282,47.97521343734988],[17.16412063328619,48.00949318585771],[16.828341483178775,48.37932701317601],[16.94317876475705,48.61742457676917],[16.90622351149642,48.71691584077274],[16.6874277366461,48.732704938623755],[16.668956421844484,48.783283629358806],[16.53818840032801,48.8133190006985],[16.46000762734124,48.805861605857615],[16.386103983486322,48.73187604718203],[16.07904727577528,48.74865525788428],[15.951206175474567,48.80373815540372],[15.959726333560212,48.82151839306178],[15.841982135973382,48.87359541693857],[15.78100363728646,48.87452574078904],[15.74976640528402,48.85219304560249],[15.509258229208626,48.915019747673966],[15.502139238284911,48.93838595576739],[15.467983204072198,48.95145623177305]],"type":"LineString"}},{"type":"Feature","properties":{},"geometry":{"coordinates":[[15.467982628249189,48.95238967684193],[15.456597132164063,48.94677776212097],[15.365532836348308,48.98027354837723],[15.322880894089167,48.97652341604987],[15.283088163009609,48.99419720743967],[15.266012517045539,48.95412719584908],[15.212031019326815,48.95779925930927],[15.187845691145355,48.943826817888805],[15.16367255052009,48.9429013647615],[15.149521408254827,48.997881771116056],[15.015694356439667,49.01857794969169],[14.990066803320246,49.01300187403021],[14.96012651424465,48.75768407936198]],"type":"LineString"}},{"type":"Feature","properties":{},"geometry":{"coordinates":[[14.957112898573143,48.772482693322075],[14.815056087975307,48.78126402136246]],"type":"LineString"}},{"type":"Feature","properties":{},"geometry":{"coordinates":[[14.815075852309292,48.78712101336629],[14.698399597129367,48.58168278775534],[14.4327182317939,48.64048615609525],[14.343759848945808,48.561197365946015],[14.002366905372924,48.634673681553295],[14.051036887428921,48.68150689716353],[13.855638510186765,48.76921247757002],[13.74056502308619,48.52312206965695],[13.51872964919616,48.5908282241478],[13.434355696886598,48.56438946387067],[13.403285754953089,48.36120562198067],[13.252275965785941,48.28442039102916],[13.00802743765459,48.251904077092576],[12.80380276588798,48.157208233325264],[12.754999918315093,48.10684238664837]],"type":"LineString"}},{"type":"Feature","properties":{},"geometry":{"coordinates":[[12.751913918360316,48.11511840643874],[13.001336570654018,47.828965163693965],[12.907135051999916,47.72375555791382],[13.036780458526636,47.70913997496339],[13.098893397026785,47.64909540811516],[13.008496272353142,47.46856270909399],[12.77763172624853,47.57064380736597],[12.822031684117007,47.60958302949422],[12.698004837774079,47.681790440057654],[12.573433810361792,47.63980919117509],[12.426696373299961,47.693768653627956],[12.239857973187412,47.73891451697648],[12.164173240762807,47.70007443650502],[12.204281873733606,47.61297030437575],[11.639387095639705,47.591910297205914],[11.577553246046705,47.525738091150316],[11.439647017362319,47.51375307522082],[11.423102111004056,47.44460118269427]],"type":"LineString"}},{"type":"Feature","properties":{},"geometry":{"coordinates":[[11.436552209334792,47.45064461363194],[11.26007523775013,47.396920311226154],[11.233098286752863,47.435877736722375]],"type":"LineString"}},{"type":"Feature","properties":{},"geometry":{"coordinates":[[11.251256168020234,47.439030919523645],[10.966555495699737,47.40276187246212],[10.895404453232146,47.53165668501623],[10.4604110740961,47.565013774486715],[10.469354239643337,47.42684225274576],[10.221074537426034,47.2763543438293],[10.220668307508191,47.38479648885101],[10.092029088802661,47.36670579487469],[10.065070910157772,47.463001333204716],[9.971501874990224,47.538185561448614],[9.793157043574524,47.583454331913174],[9.565832376531745,47.51156958838695],[9.677344174340078,47.37308431735099],[9.59776204153772,47.35492615063265],[9.481702957140072,47.15574608214885],[9.486348557534228,47.058894126943585],[9.879678680021726,47.016944961281865],[9.875601722344982,46.92932070734335],[10.115196756509533,46.84164027330502]],"type":"LineString"}}]}